{"type":"FeatureCollection","features":[{"type":"Feature","geometry":{"type":"Polygon","coordinates":[[[-81.09538,31.52098],[-81.08707,31.52916],[-81.08318,31.56491],[-81.07668,31.59795],[-81.06583,31.62523],[-81.06963,31.6424],[-81.06663,31.65733],[-81.05901,31.66601],[-81.04979,31.68863],[-81.05152,31.7052],[-81.05662,31.71488],[-81.02582,31.72023],[-81.01381,31.72864],[-80.9972,31.7485],[-80.99617,31.76213],[-80.983,31.77268],[-80.97695,31.78088],[-80.9731,31.78822],[-80.97073,31.79835],[-80.94963,31.80305],[-80.93832,31.80901],[-80.92859,31.81698],[-80.92213,31.82528],[-80.91682,31.83838],[-80.9117,31.84065],[-80.89699,31.85281],[-80.88878,31.86578],[-80.87481,31.8807],[-80.85534,31.91081],[-80.82922,31.92658],[-80.81928,31.93385],[-80.81461,31.94],[-80.80405,31.94613],[-80.79627,31.95346],[-80.78984,31.96439],[-80.78583,31.98037],[-80.78624,31.98575],[-80.78296,31.99595],[-80.81558,32.02992],[-80.82276,32.03424],[-80.85024,32.04142],[-80.88614,32.03895],[-80.89213,32.03543],[-80.92103,32.03999],[-80.92508,32.04194],[-80.95403,32.07029],[-80.95957,32.07285],[-80.97192,32.07463],[-80.98351,32.07955],[-80.99214,32.09492],[-81.00431,32.10237],[-81.01244,32.10174],[-81.01735,32.09879],[-81.0216,32.0917],[-81.0263,32.0881],[-81.03812,32.08373],[-81.04361,32.08619],[-81.05973,32.08865],[-81.07539,32.09804],[-81.08827,32.09993],[-81.08697,32.10397],[-81.09162,32.11117],[-81.10178,32.11133],[-81.1067,32.1097],[-81.11537,32.1147],[-81.11723,32.11981],[-81.11525,32.1255],[-81.11994,32.1353],[-81.11833,32.14441],[-81.11223,32.14931],[-81.11224,32.1508],[-81.12003,32.1533],[-81.12214,32.1573],[-81.12203,32.1618],[-81.12976,32.16584],[-81.12814,32.1691],[-81.12115,32.1749],[-81.11944,32.17536],[-81.11695,32.17091],[-81.11113,32.1727],[-81.11023,32.1768],[-81.11193,32.178],[-81.11693,32.1762],[-81.12044,32.1787],[-81.11793,32.1853],[-81.11824,32.1892],[-81.12116,32.19008],[-81.12179,32.19179],[-81.11482,32.19342],[-81.11403,32.1957],[-81.12189,32.19554],[-81.12315,32.20132],[-81.12742,32.20755],[-81.13601,32.21285],[-81.13892,32.21977],[-81.14317,32.22174],[-81.15206,32.22204],[-81.14635,32.22456],[-81.14363,32.22927],[-81.14577,32.23234],[-81.15288,32.23679],[-81.15661,32.24328],[-81.15446,32.24692],[-81.14591,32.25072],[-81.14812,32.25509],[-81.14474,32.25806],[-81.14632,32.26332],[-81.13937,32.2637],[-81.13693,32.26611],[-81.13792,32.26889],[-81.14211,32.27158],[-81.13603,32.27266],[-81.13318,32.26968],[-81.12948,32.27622],[-81.12351,32.27514],[-81.12328,32.27698],[-81.12646,32.27925],[-81.12714,32.28225],[-81.11963,32.28678],[-81.12046,32.29088],[-81.12392,32.29519],[-81.12263,32.30699],[-81.12523,32.30908],[-81.12856,32.30687],[-81.13302,32.30855],[-81.12978,32.31329],[-81.13163,32.31864],[-81.13074,32.32576],[-81.13555,32.32432],[-81.13801,32.32824],[-81.1328,32.33475],[-81.12896,32.33645],[-81.12853,32.33838],[-81.12962,32.3417],[-81.13348,32.34098],[-81.1393,32.34502],[-81.14137,32.35015],[-81.14386,32.35154],[-81.14732,32.35013],[-81.14533,32.34516],[-81.14955,32.34508],[-81.15282,32.34132],[-81.16,32.34048],[-81.15998,32.34285],[-81.15561,32.34331],[-81.15461,32.35007],[-81.16093,32.34947],[-81.161,32.35591],[-81.1663,32.35787],[-81.1674,32.36136],[-81.17387,32.36277],[-81.169,32.36512],[-81.16791,32.36848],[-81.17673,32.37672],[-81.18185,32.37935],[-81.17778,32.38623],[-81.17828,32.39299],[-81.20541,32.42334],[-81.20511,32.42722],[-81.20839,32.43725],[-81.20058,32.44069],[-81.19929,32.44291],[-81.20075,32.44609],[-81.20632,32.44701],[-81.20577,32.45047],[-81.20329,32.45299],[-81.19787,32.44855],[-81.19767,32.45461],[-81.19201,32.45379],[-81.19441,32.45891],[-81.1886,32.46123],[-81.18714,32.46415],[-81.19477,32.46516],[-81.20041,32.46831],[-81.23311,32.49807],[-81.23425,32.50275],[-81.2378,32.50526],[-81.23882,32.50805],[-81.23716,32.5113],[-81.23232,32.51208],[-81.23379,32.51831],[-81.24086,32.51648],[-81.24394,32.5209],[-81.24745,32.51828],[-81.25206,32.51814],[-81.27192,32.52998],[-81.27465,32.53419],[-81.27966,32.53634],[-81.27992,32.53764],[-81.27524,32.53981],[-81.2748,32.54442],[-81.28087,32.5479],[-81.27874,32.55245],[-81.28058,32.55603],[-81.28386,32.55654],[-81.28515,32.55235],[-81.28863,32.55111],[-81.28996,32.55218],[-81.28847,32.55846],[-81.29096,32.56266],[-81.29346,32.56158],[-81.29131,32.55836],[-81.29148,32.55571],[-81.29616,32.55334],[-81.29807,32.55534],[-81.2953,32.56081],[-81.29765,32.56293],[-81.3196,32.55956],[-81.3286,32.56109],[-81.35593,32.57161],[-81.35831,32.57445],[-81.35349,32.57877],[-81.35803,32.58221],[-81.36017,32.58178],[-81.36349,32.57691],[-81.36678,32.57691],[-81.36725,32.57836],[-81.36359,32.58298],[-81.36982,32.58505],[-81.36927,32.5907],[-81.37314,32.59209],[-81.37601,32.58926],[-81.37888,32.58891],[-81.38921,32.59542],[-81.39376,32.60233],[-81.40646,32.61304],[-81.40752,32.61658],[-81.41191,32.61841],[-81.41309,32.6248],[-81.41866,32.62939],[-81.41843,32.6347],[-81.41476,32.63744],[-81.41288,32.63668],[-81.41026,32.63139],[-81.40727,32.63174],[-81.40274,32.63703],[-81.41183,32.63938],[-81.41255,32.64152],[-81.40358,32.6434],[-81.39303,32.65154],[-81.39382,32.65349],[-81.39943,32.65681],[-81.40527,32.65652],[-81.40719,32.66052],[-81.40537,32.66292],[-81.40325,32.65946],[-81.40034,32.65849],[-81.39715,32.66138],[-81.40429,32.6678],[-81.40121,32.67988],[-81.40701,32.68555],[-81.40568,32.68989],[-81.40901,32.69655],[-81.41087,32.69686],[-81.41054,32.69251],[-81.4124,32.6921],[-81.41358,32.69547],[-81.41781,32.69557],[-81.42142,32.70049],[-81.42752,32.7019],[-81.42408,32.70629],[-81.42593,32.71004],[-81.42244,32.70961],[-81.42119,32.71198],[-81.41512,32.71367],[-81.42034,32.72105],[-81.40999,32.72186],[-81.41058,32.72332],[-81.41777,32.72507],[-81.41675,32.72876],[-81.41854,32.73258],[-81.4121,32.73262],[-81.41368,32.73799],[-81.40704,32.74066],[-81.40493,32.74556],[-81.40587,32.74914],[-81.41787,32.74783],[-81.4197,32.74917],[-81.41673,32.75328],[-81.41157,32.75312],[-81.40816,32.7558],[-81.41404,32.75542],[-81.41209,32.76387],[-81.41463,32.76418],[-81.41777,32.76022],[-81.4189,32.76113],[-81.41683,32.76532],[-81.41894,32.76763],[-81.43194,32.76891],[-81.43151,32.77148],[-81.42985,32.77213],[-81.41735,32.77334],[-81.41446,32.77815],[-81.41617,32.77979],[-81.42483,32.7787],[-81.43008,32.78177],[-81.43124,32.78414],[-81.42998,32.78524],[-81.42564,32.7826],[-81.42224,32.78399],[-81.42207,32.78556],[-81.42767,32.78761],[-81.42001,32.79289],[-81.41988,32.79486],[-81.42523,32.79419],[-81.42829,32.80083],[-81.42244,32.80248],[-81.42644,32.81071],[-81.42134,32.81211],[-81.41798,32.8182],[-81.42059,32.81865],[-81.42435,32.81618],[-81.42824,32.81858],[-81.42304,32.81975],[-81.42195,32.82147],[-81.42994,32.82825],[-81.42367,32.82831],[-81.42062,32.83122],[-81.42161,32.83518],[-81.42648,32.84077],[-81.4336,32.84367],[-81.43865,32.84008],[-81.44288,32.84585],[-81.44267,32.85011],[-81.44487,32.85097],[-81.4512,32.84792],[-81.45274,32.84415],[-81.46072,32.84604],[-81.46021,32.8474],[-81.45556,32.84651],[-81.45692,32.8526],[-81.45302,32.85964],[-81.45336,32.86385],[-81.45137,32.86716],[-81.45288,32.87296],[-81.46056,32.87516],[-81.46505,32.8809],[-81.46714,32.8806],[-81.46804,32.87668],[-81.47038,32.87627],[-81.47592,32.87764],[-81.47944,32.88108],[-81.4764,32.88796],[-81.4717,32.89044],[-81.46619,32.88913],[-81.46823,32.89325],[-81.46465,32.896],[-81.46443,32.8986],[-81.4677,32.9009],[-81.47076,32.9009],[-81.47179,32.89381],[-81.48081,32.89861],[-81.47918,32.9042],[-81.48144,32.90889],[-81.48001,32.91344],[-81.48705,32.91477],[-81.48763,32.91641],[-81.4832,32.9218],[-81.49509,32.9316],[-81.49983,32.93261],[-81.50243,32.93535],[-81.50272,32.93869],[-81.49945,32.94499],[-81.50861,32.95255],[-81.51135,32.96672],[-81.50884,32.96937],[-81.50614,32.96413],[-81.50246,32.9628],[-81.49983,32.96382],[-81.49784,32.97301],[-81.49474,32.979],[-81.49567,32.98273],[-81.49416,32.9857],[-81.49633,32.99021],[-81.49225,32.99351],[-81.4912,32.99782],[-81.49983,33.00065],[-81.50063,33.00245],[-81.49875,33.00506],[-81.4919,33.00669],[-81.49195,33.00909],[-81.49868,33.01134],[-81.50405,33.01625],[-81.50667,33.01508],[-81.50822,33.01053],[-81.51069,33.01032],[-81.51156,33.01237],[-81.50822,33.01751],[-81.51028,33.02123],[-81.51607,33.02083],[-81.51907,33.0232],[-81.51169,33.02451],[-81.51124,33.02779],[-81.52274,33.03084],[-81.52845,33.03565],[-81.52912,33.04081],[-81.5355,33.03849],[-81.53879,33.03918],[-81.54224,33.04736],[-81.54544,33.04899],[-81.55179,33.04339],[-81.56195,33.04584],[-81.56611,33.04879],[-81.56034,33.05004],[-81.55917,33.05176],[-81.5594,33.0549],[-81.56337,33.06016],[-81.56699,33.0604],[-81.56277,33.05612],[-81.56631,33.05343],[-81.57288,33.05418],[-81.5718,33.05808],[-81.57812,33.05777],[-81.57833,33.05894],[-81.5745,33.06005],[-81.57491,33.0618],[-81.58099,33.0627],[-81.57716,33.06434],[-81.57719,33.06594],[-81.5831,33.06496],[-81.58297,33.06857],[-81.58436,33.0699],[-81.58731,33.06985],[-81.59252,33.07306],[-81.59359,33.0695],[-81.59603,33.07269],[-81.60221,33.07347],[-81.6033,33.07509],[-81.59899,33.07668],[-81.5965,33.07989],[-81.60132,33.08705],[-81.60684,33.08172],[-81.61207,33.08002],[-81.61294,33.08398],[-81.60829,33.08902],[-81.61166,33.09426],[-81.61726,33.0957],[-81.64233,33.09315],[-81.65843,33.10315],[-81.67943,33.11175],[-81.69693,33.11655],[-81.70463,33.11645],[-81.71163,33.12195],[-81.72173,33.12645],[-81.72953,33.13375],[-81.74384,33.14145],[-81.74633,33.14605],[-81.75214,33.14855],[-81.76314,33.15945],[-81.76423,33.16525],[-81.76824,33.16795],[-81.76704,33.17215],[-81.77243,33.18045],[-81.77174,33.18155],[-81.76864,33.17845],[-81.76544,33.17835],[-81.76493,33.17995],[-81.76764,33.18355],[-81.76704,33.18655],[-81.76063,33.18925],[-81.75954,33.19475],[-81.75684,33.19795],[-81.76354,33.20365],[-81.76893,33.21745],[-81.77403,33.22115],[-81.78013,33.22115],[-81.78103,33.21985],[-81.77733,33.21495],[-81.77753,33.21135],[-81.78454,33.20815],[-81.79024,33.20845],[-81.79824,33.21165],[-81.80524,33.21144],[-81.80794,33.21375],[-81.80964,33.22265],[-81.82794,33.22875],[-81.83504,33.23615],[-81.84654,33.24175],[-81.85208,33.24729],[-81.85314,33.25075],[-81.85114,33.25255],[-81.84514,33.25255],[-81.83964,33.25525],[-81.84104,33.25704],[-81.84614,33.25814],[-81.84814,33.26394],[-81.84734,33.26635],[-81.84386,33.26662],[-81.83454,33.25835],[-81.82834,33.26305],[-81.83014,33.26455],[-81.83344,33.26225],[-81.83584,33.26285],[-81.83574,33.27104],[-81.83264,33.27584],[-81.83884,33.27375],[-81.84404,33.27864],[-81.84564,33.28424],[-81.85764,33.28464],[-81.86324,33.28884],[-81.86204,33.29694],[-81.86004,33.29914],[-81.85294,33.29964],[-81.85034,33.29644],[-81.84874,33.29674],[-81.84954,33.30004],[-81.84604,33.30434],[-81.84734,33.30684],[-81.85519,33.31039],[-81.86393,33.30204],[-81.86494,33.31184],[-81.86794,33.31404],[-81.88074,33.30224],[-81.88464,33.30894],[-81.88164,33.31584],[-81.88374,33.31764],[-81.89254,33.31534],[-81.88914,33.32104],[-81.89054,33.32244],[-81.89554,33.32164],[-81.89904,33.32334],[-81.89944,33.32514],[-81.89654,33.32954],[-81.90138,33.33577],[-81.90364,33.33484],[-81.90274,33.33024],[-81.90604,33.32604],[-81.90613,33.32162],[-81.91154,33.31914],[-81.91374,33.32004],[-81.90914,33.32394],[-81.90814,33.32714],[-81.91914,33.33444],[-81.91504,33.34154],[-81.90844,33.34384],[-81.90914,33.34664],[-81.91321,33.34682],[-81.9188,33.34021],[-81.92474,33.34534],[-81.93274,33.34354],[-81.93974,33.34494],[-81.93984,33.34774],[-81.93564,33.35204],[-81.93483,33.35604],[-81.94474,33.36404],[-81.94674,33.36734],[-81.94634,33.37064],[-81.93964,33.37254],[-81.93464,33.36894],[-81.93063,33.36817],[-81.92574,33.37114],[-81.92484,33.37414],[-81.93086,33.38008],[-81.93545,33.39785],[-81.94448,33.40367],[-81.94518,33.40753],[-81.94267,33.40919],[-81.93139,33.40696],[-81.9245,33.41248],[-81.92177,33.40887],[-81.91641,33.40735],[-81.9121,33.40826],[-81.90969,33.41198],[-81.91077,33.41504],[-81.92455,33.41911],[-81.93243,33.42571],[-81.92974,33.42959],[-81.91732,33.43235],[-81.91313,33.43833],[-81.91385,33.44203],[-81.91944,33.4491],[-81.92634,33.46294],[-81.93414,33.46834],[-81.98594,33.48654],[-81.99094,33.49424],[-81.99038,33.50076],[-81.99194,33.50443],[-82.00134,33.52013],[-82.00764,33.52334],[-82.01097,33.53134],[-82.01984,33.53504],[-82.02344,33.53794],[-82.02344,33.54073],[-82.02561,33.54276],[-82.03302,33.54645],[-82.03737,33.55466],[-82.04634,33.56383],[-82.05773,33.56677],[-82.0731,33.57751],[-82.09413,33.58274],[-82.10784,33.59628],[-82.1175,33.59623],[-82.12908,33.58993],[-82.13803,33.59224],[-82.14882,33.59809],[-82.15336,33.60632],[-82.15629,33.60863],[-82.17617,33.61377],[-82.18616,33.62088],[-82.1969,33.63144],[-82.20119,33.6469],[-82.1999,33.6617],[-82.21036,33.66984],[-82.21788,33.68554],[-82.23457,33.70022],[-82.23719,33.70788],[-82.23575,33.71439],[-82.2391,33.73087],[-82.24566,33.74344],[-82.24747,33.75259],[-82.25527,33.75969],[-82.26321,33.76196],[-82.26613,33.76675],[-82.27768,33.77203],[-82.2858,33.78006],[-82.29829,33.78352],[-82.30021,33.80063],[-82.3129,33.80749],[-82.31435,33.81111],[-82.32448,33.82003],[-82.33783,33.82716],[-82.34693,33.8343],[-82.37177,33.84381],[-82.37977,33.8511],[-82.39573,33.85909],[-82.40388,33.86548],[-82.40835,33.86632],[-82.42489,33.86413],[-82.43115,33.86705],[-82.4405,33.87512],[-82.4551,33.88165],[-82.48011,33.9019],[-82.49293,33.90975],[-82.51142,33.93561],[-82.52452,33.94336],[-82.53411,33.94365],[-82.54311,33.94095],[-82.55676,33.94532],[-82.5652,33.95676],[-82.56759,33.96788],[-82.57998,33.98052],[-82.58012,33.98645],[-82.57557,33.99024],[-82.57555,33.99221],[-82.58503,33.99617],[-82.58896,34.00051],[-82.5955,34.01586],[-82.59446,34.0293],[-82.60942,34.03991],[-82.61301,34.0469],[-82.61916,34.05135],[-82.62129,34.05783],[-82.62663,34.06334],[-82.63899,34.06678],[-82.64366,34.07211],[-82.64537,34.07826],[-82.64017,34.08733],[-82.64242,34.09326],[-82.64784,34.09855],[-82.65873,34.10377],[-82.66634,34.11275],[-82.66856,34.12043],[-82.67698,34.13143],[-82.68629,34.13445],[-82.69215,34.13899],[-82.70413,34.14102],[-82.71746,34.15055],[-82.72477,34.16869],[-82.73145,34.17709],[-82.73212,34.19332],[-82.74188,34.21021],[-82.74234,34.21343],[-82.74026,34.21945],[-82.74436,34.22541],[-82.74201,34.22933],[-82.74487,34.24492],[-82.74292,34.25107],[-82.74557,34.25407],[-82.74583,34.25836],[-82.74854,34.26313],[-82.74681,34.26659],[-82.75424,34.27579],[-82.76169,34.28169],[-82.76675,34.28232],[-82.77152,34.28605],[-82.78213,34.29828],[-82.78199,34.30318],[-82.78706,34.3103],[-82.79175,34.32516],[-82.79118,34.33054],[-82.79447,34.34038],[-82.81261,34.35114],[-82.81377,34.35393],[-82.83446,34.36522],[-82.83598,34.38091],[-82.84177,34.39155],[-82.84145,34.39905],[-82.84751,34.41276],[-82.84697,34.41988],[-82.84963,34.42568],[-82.85401,34.42882],[-82.85549,34.44179],[-82.86012,34.45284],[-82.85884,34.45522],[-82.8644,34.45978],[-82.87185,34.46119],[-82.87348,34.46432],[-82.88064,34.469],[-82.88135,34.47287],[-82.8874,34.48096],[-82.89245,34.48111],[-82.90155,34.48676],[-82.91774,34.48417],[-82.9252,34.48146],[-82.93042,34.48561],[-82.94286,34.48591],[-82.94823,34.48049],[-82.95564,34.47889],[-82.95855,34.47955],[-82.96424,34.48457],[-82.96648,34.48233],[-82.97492,34.47935],[-82.97975,34.48294],[-82.99274,34.47895],[-82.9959,34.4722],[-83.01725,34.47825],[-83.0284,34.48388],[-83.03456,34.48357],[-83.04842,34.49344],[-83.05164,34.4937],[-83.05432,34.50279],[-83.0587,34.50358],[-83.0658,34.50104],[-83.07259,34.50411],[-83.07645,34.50779],[-83.07925,34.51412],[-83.08724,34.51618],[-83.07791,34.52377],[-83.0784,34.52537],[-83.08782,34.53208],[-83.10269,34.5324],[-83.10408,34.54004],[-83.10924,34.54218],[-83.11067,34.54786],[-83.11627,34.55217],[-83.12189,34.55234],[-83.12405,34.55407],[-83.12205,34.55803],[-83.1229,34.56012],[-83.12718,34.562],[-83.13338,34.5595],[-83.13988,34.5618],[-83.13988,34.568],[-83.14318,34.5734],[-83.15368,34.5787],[-83.15868,34.579],[-83.15908,34.5815],[-83.15458,34.5882],[-83.16967,34.59169],[-83.17098,34.5981],[-83.16508,34.6009],[-83.16058,34.5995],[-83.15968,34.6033],[-83.17258,34.6078],[-83.18528,34.607],[-83.19688,34.6031],[-83.19778,34.6071],[-83.20379,34.6096],[-83.2164,34.61101],[-83.22228,34.60948],[-83.23258,34.6116],[-83.24338,34.618],[-83.24067,34.62451],[-83.24648,34.6269],[-83.24828,34.6317],[-83.25388,34.6367],[-83.26258,34.6404],[-83.27198,34.6419],[-83.27796,34.64485],[-83.28078,34.649],[-83.29318,34.6543],[-83.30085,34.66247],[-83.30148,34.66658],[-83.30464,34.66956],[-83.3164,34.66932],[-83.31944,34.67597],[-83.32534,34.67952],[-83.33028,34.68134],[-83.3389,34.68004],[-83.342,34.68177],[-83.34262,34.68299],[-83.33825,34.68703],[-83.34013,34.69148],[-83.35379,34.69817],[-83.35299,34.70084],[-83.34665,34.70422],[-83.35049,34.70969],[-83.35269,34.7169],[-83.35342,34.72842],[-83.34862,34.73704],[-83.33916,34.73829],[-83.33891,34.74178],[-83.33305,34.7456],[-83.33233,34.74912],[-83.32638,34.75075],[-83.32623,34.75625],[-83.31875,34.75763],[-83.3233,34.76074],[-83.31918,34.76461],[-83.323,34.76625],[-83.31898,34.77131],[-83.32266,34.77739],[-83.32121,34.77904],[-83.32414,34.78925],[-83.32044,34.79058],[-83.3204,34.79318],[-83.31406,34.79647],[-83.31416,34.79956],[-83.30322,34.80221],[-83.30084,34.80434],[-83.29942,34.80945],[-83.3044,34.81115],[-83.30637,34.81567],[-83.30301,34.81884],[-83.30057,34.81866],[-83.29895,34.81745],[-83.29985,34.81504],[-83.29514,34.81323],[-83.29452,34.81603],[-83.28996,34.81846],[-83.29108,34.82319],[-83.28903,34.82465],[-83.27708,34.817],[-83.27088,34.81859],[-83.26832,34.82112],[-83.26964,34.82365],[-83.26718,34.83132],[-83.27259,34.83551],[-83.2672,34.84847],[-83.26173,34.84864],[-83.26063,34.84528],[-83.25729,34.8441],[-83.24893,34.84514],[-83.25391,34.84877],[-83.25245,34.85218],[-83.25332,34.85592],[-83.24641,34.85552],[-83.24824,34.85817],[-83.24634,34.86003],[-83.24809,34.86558],[-83.24603,34.86723],[-83.23911,34.86509],[-83.23788,34.86888],[-83.2347,34.87074],[-83.24058,34.87279],[-83.243,34.87754],[-83.23951,34.87889],[-83.23249,34.87778],[-83.22925,34.87976],[-83.22013,34.87804],[-83.21989,34.88111],[-83.21742,34.88238],[-83.21728,34.88609],[-83.21403,34.88857],[-83.21277,34.88761],[-83.21458,34.88363],[-83.20957,34.87986],[-83.20526,34.88017],[-83.20103,34.88441],[-83.20476,34.89022],[-83.20354,34.89345],[-83.20033,34.89325],[-83.1986,34.89038],[-83.19718,34.89059],[-83.19766,34.89477],[-83.19451,34.89943],[-83.1915,34.89678],[-83.18813,34.89809],[-83.18069,34.90458],[-83.18092,34.90947],[-83.17463,34.91028],[-83.17071,34.91424],[-83.16861,34.91936],[-83.16484,34.91917],[-83.16042,34.91502],[-83.15699,34.91512],[-83.15924,34.92861],[-83.15689,34.93077],[-83.14152,34.92451],[-83.12996,34.93135],[-83.13174,34.93572],[-83.12731,34.93863],[-83.12054,34.93294],[-83.1179,34.93604],[-83.11175,34.93496],[-83.11655,34.9425],[-83.12108,34.94215],[-83.12743,34.9493],[-83.12475,34.95107],[-83.12705,34.95424],[-83.12446,34.95503],[-83.11406,34.95028],[-83.11482,34.95285],[-83.12029,34.95796],[-83.12023,34.95913],[-83.11579,34.96017],[-83.12162,34.96277],[-83.12211,34.96433],[-83.12033,34.96878],[-83.11562,34.97305],[-83.11653,34.97572],[-83.11118,34.97572],[-83.11128,34.981],[-83.10774,34.97981],[-83.10577,34.9815],[-83.10696,34.98354],[-83.1018,34.98613],[-83.10286,34.98871],[-83.09831,34.99066],[-83.10352,34.99367],[-83.1022,34.99619],[-83.10336,34.99764],[-83.11061,35.0013],[-83.29685,34.99628],[-83.62005,34.99203],[-83.61995,34.98667],[-83.62488,34.98663],[-83.74989,34.98784],[-84.89152,34.98824],[-85.23564,34.98583],[-85.38497,34.98299],[-85.60517,34.98468],[-85.5905,34.89894],[-85.56142,34.75008],[-85.47045,34.32824],[-85.42947,34.1251],[-85.40675,34.00231],[-85.30444,33.48288],[-85.23311,33.11171],[-85.18413,32.87053],[-85.1844,32.86132],[-85.17712,32.85389],[-85.16869,32.85259],[-85.16231,32.85648],[-85.15629,32.85052],[-85.15339,32.84486],[-85.15401,32.84074],[-85.16411,32.83529],[-85.16834,32.82852],[-85.16485,32.81979],[-85.16864,32.81425],[-85.16805,32.81184],[-85.15202,32.79418],[-85.14633,32.79157],[-85.14218,32.79214],[-85.13966,32.78515],[-85.13489,32.78446],[-85.1311,32.78031],[-85.12622,32.77919],[-85.12233,32.77438],[-85.12374,32.77203],[-85.13088,32.76956],[-85.13669,32.77117],[-85.13742,32.76719],[-85.14162,32.76416],[-85.14299,32.75993],[-85.13945,32.75183],[-85.13314,32.74463],[-85.12824,32.74223],[-85.11855,32.74082],[-85.11333,32.73575],[-85.11414,32.73043],[-85.12084,32.72293],[-85.12274,32.71603],[-85.12184,32.71263],[-85.11814,32.70943],[-85.12004,32.70653],[-85.11704,32.69203],[-85.11264,32.68343],[-85.10404,32.67963],[-85.09354,32.66973],[-85.09304,32.66443],[-85.08848,32.65776],[-85.08974,32.65563],[-85.09834,32.65203],[-85.10434,32.64643],[-85.10543,32.64493],[-85.10453,32.64101],[-85.10155,32.64039],[-85.10039,32.63712],[-85.0989,32.63693],[-85.10009,32.63458],[-85.09622,32.63483],[-85.09668,32.6362],[-85.09004,32.63404],[-85.08312,32.63616],[-85.08384,32.63194],[-85.09004,32.62764],[-85.09089,32.62513],[-85.08794,32.62052],[-85.08224,32.61626],[-85.07897,32.60017],[-85.06753,32.57955],[-85.06198,32.57825],[-85.0579,32.57465],[-85.05693,32.57124],[-85.04547,32.56172],[-85.04366,32.55652],[-85.03573,32.55396],[-85.03139,32.54417],[-85.02619,32.54484],[-85.0208,32.54276],[-85.02204,32.54083],[-85.02088,32.53585],[-85.01526,32.53111],[-85.01526,32.52768],[-85.0071,32.52387],[-85.00638,32.51849],[-85.00153,32.51474],[-85.00093,32.50874],[-84.99893,32.50634],[-84.99983,32.50434],[-84.99653,32.50164],[-84.99883,32.49704],[-84.99543,32.48894],[-84.99493,32.48014],[-84.99523,32.4753],[-84.99853,32.46874],[-84.99533,32.45324],[-84.99353,32.45074],[-84.98383,32.44564],[-84.97183,32.44284],[-84.96703,32.43534],[-84.96303,32.42424],[-84.97183,32.41624],[-84.97943,32.41224],[-84.98095,32.40606],[-84.9799,32.4001],[-84.97475,32.3956],[-84.96927,32.39344],[-84.96873,32.39146],[-84.97836,32.3905],[-84.983,32.39195],[-84.98841,32.38522],[-84.98628,32.38034],[-84.97481,32.38026],[-84.97215,32.37691],[-84.97523,32.37416],[-84.98204,32.37434],[-84.98532,32.37251],[-84.98633,32.36869],[-84.98324,32.36512],[-84.98387,32.36239],[-85.00458,32.3452],[-85.0081,32.33668],[-85.0064,32.32676],[-85.00034,32.32142],[-84.98883,32.31917],[-84.93465,32.29892],[-84.92287,32.28533],[-84.90402,32.27375],[-84.88825,32.25967],[-84.89119,32.25749],[-84.90119,32.25837],[-84.90348,32.25561],[-84.90409,32.25084],[-84.90723,32.24905],[-84.92443,32.25015],[-84.92323,32.24465],[-84.92033,32.24405],[-84.91543,32.24605],[-84.91273,32.24335],[-84.91633,32.23655],[-84.92333,32.23085],[-84.92293,32.22475],[-84.92823,32.21985],[-84.93933,32.21795],[-84.9594,32.21786],[-84.96813,32.21935],[-84.97333,32.21765],[-84.97983,32.21105],[-84.98023,32.20775],[-84.97443,32.20355],[-84.96463,32.20355],[-84.96173,32.19875],[-84.96373,32.19585],[-84.97503,32.19105],[-85.01127,32.18049],[-85.01708,32.17352],[-85.02658,32.1661],[-85.04559,32.14376],[-85.06191,32.13286],[-85.0534,32.10484],[-85.04476,32.08584],[-85.05323,32.0806],[-85.05581,32.07444],[-85.05418,32.06798],[-85.05883,32.04696],[-85.05347,32.03782],[-85.05353,32.03595],[-85.05803,32.03361],[-85.05712,32.02992],[-85.04883,32.0217],[-85.05367,32.02066],[-85.05531,32.01775],[-85.05381,32.0135],[-85.05508,32.01071],[-85.06344,32.00414],[-85.06733,31.99556],[-85.06833,31.98676],[-85.07093,31.98166],[-85.06593,31.97246],[-85.06783,31.96736],[-85.07393,31.96416],[-85.08323,31.96246],[-85.08673,31.95916],[-85.08243,31.94536],[-85.07893,31.94016],[-85.08643,31.93596],[-85.09183,31.92886],[-85.09953,31.92526],[-85.10243,31.91736],[-85.11313,31.91186],[-85.10803,31.90516],[-85.11223,31.90276],[-85.11063,31.89686],[-85.11203,31.89476],[-85.11503,31.89306],[-85.13413,31.89216],[-85.12843,31.87756],[-85.13373,31.87006],[-85.13583,31.86246],[-85.14073,31.85746],[-85.13803,31.85126],[-85.13773,31.84586],[-85.14183,31.83926],[-85.13773,31.83216],[-85.13193,31.82706],[-85.13453,31.82496],[-85.13123,31.81676],[-85.13293,31.80806],[-85.13223,31.79516],[-85.13293,31.79236],[-85.14193,31.78196],[-85.12523,31.76706],[-85.12923,31.75866],[-85.12203,31.74406],[-85.11893,31.73266],[-85.12223,31.72646],[-85.12223,31.72276],[-85.12653,31.71676],[-85.12553,31.69496],[-85.12233,31.69126],[-85.11393,31.68686],[-85.10943,31.67747],[-85.09243,31.65997],[-85.07913,31.65477],[-85.07803,31.65157],[-85.08263,31.65027],[-85.08703,31.64097],[-85.08623,31.63857],[-85.08003,31.63687],[-85.07383,31.62957],[-85.05817,31.62023],[-85.05753,31.61688],[-85.06055,31.60822],[-85.05598,31.60517],[-85.05844,31.58369],[-85.05528,31.5776],[-85.05796,31.57084],[-85.05293,31.56289],[-85.05084,31.55555],[-85.04255,31.54595],[-85.04136,31.5425],[-85.04181,31.53775],[-85.04826,31.52601],[-85.04456,31.52091],[-85.04499,31.51823],[-85.05693,31.50017],[-85.0621,31.48802],[-85.06526,31.48492],[-85.07162,31.46838],[-85.06595,31.44298],[-85.06601,31.43053],[-85.06855,31.42731],[-85.0737,31.42896],[-85.07589,31.42493],[-85.07675,31.41597],[-85.07998,31.41047],[-85.07739,31.40284],[-85.07763,31.39888],[-85.0804,31.39393],[-85.08243,31.38454],[-85.09233,31.36405],[-85.09179,31.35521],[-85.08592,31.35315],[-85.08709,31.34032],[-85.08942,31.33603],[-85.08415,31.32831],[-85.0837,31.32385],[-85.08378,31.31821],[-85.0874,31.31122],[-85.08977,31.29503],[-85.09871,31.28446],[-85.11036,31.28175],[-85.1146,31.27733],[-85.1119,31.27248],[-85.11326,31.26434],[-85.11235,31.25958],[-85.09676,31.22565],[-85.09871,31.21951],[-85.0987,31.21129],[-85.10696,31.20269],[-85.10752,31.18645],[-85.10205,31.18473],[-85.09851,31.18015],[-85.10021,31.16549],[-85.09211,31.16029],[-85.08358,31.15963],[-85.07663,31.15693],[-85.06933,31.14701],[-85.06403,31.1425],[-85.06043,31.1315],[-85.05468,31.12082],[-85.03562,31.10819],[-85.03546,31.10434],[-85.02974,31.09616],[-85.02607,31.08418],[-85.02857,31.07458],[-85.01815,31.05925],[-85.01139,31.05355],[-85.00858,31.04406],[-85.00941,31.03238],[-85.00505,31.0247],[-85.00455,31.01918],[-84.99943,31.01384],[-85.0025,31.00069],[-85.00238,30.98784],[-85.00593,30.9798],[-85.00573,30.97591],[-84.99993,30.97119],[-84.98722,30.96854],[-84.98253,30.96559],[-84.98013,30.96129],[-84.97953,30.95559],[-84.98303,30.94259],[-84.98313,30.93479],[-84.97103,30.92819],[-84.96673,30.91729],[-84.95613,30.90759],[-84.94253,30.88849],[-84.93442,30.88359],[-84.93982,30.87259],[-84.93232,30.86429],[-84.93642,30.85979],[-84.93612,30.85699],[-84.93322,30.85149],[-84.92782,30.84789],[-84.92567,30.84268],[-84.92708,30.83902],[-84.93214,30.8383],[-84.93481,30.83585],[-84.93742,30.82089],[-84.92832,30.80509],[-84.92832,30.79309],[-84.91802,30.77809],[-84.91802,30.77209],[-84.92012,30.76599],[-84.91502,30.76119],[-84.91352,30.75229],[-84.90732,30.75059],[-84.90022,30.75189],[-84.89612,30.75059],[-84.88752,30.74179],[-84.88382,30.73259],[-84.87542,30.72749],[-84.86975,30.7219],[-84.86469,30.71154],[-84.64433,30.70196],[-84.47441,30.69279],[-84.25036,30.68413],[-83.49993,30.64567],[-82.59574,30.59253],[-82.21468,30.56856],[-82.2144,30.56683],[-82.21692,30.56532],[-82.22386,30.56528],[-82.23419,30.55765],[-82.23444,30.54875],[-82.23888,30.5455],[-82.2404,30.53777],[-82.23739,30.53222],[-82.23076,30.52658],[-82.2293,30.52059],[-82.2303,30.51733],[-82.22507,30.50769],[-82.21263,30.50055],[-82.21158,30.49729],[-82.20667,30.49321],[-82.20124,30.48511],[-82.20321,30.48218],[-82.20147,30.48006],[-82.20104,30.47466],[-82.20437,30.4711],[-82.20447,30.46876],[-82.20637,30.46851],[-82.20615,30.46241],[-82.2077,30.46041],[-82.20738,30.45698],[-82.20449,30.45534],[-82.20406,30.45286],[-82.20574,30.45105],[-82.20379,30.44498],[-82.20735,30.43917],[-82.20642,30.43573],[-82.20972,30.43306],[-82.209,30.42834],[-82.21086,30.42538],[-82.2092,30.42133],[-82.20746,30.42112],[-82.20803,30.41747],[-82.20643,30.41708],[-82.20838,30.4143],[-82.20576,30.41195],[-82.20533,30.40834],[-82.20676,30.40684],[-82.20376,30.40531],[-82.20424,30.40155],[-82.20286,30.40126],[-82.2014,30.39535],[-82.19811,30.39184],[-82.19922,30.38983],[-82.19658,30.38828],[-82.19421,30.3892],[-82.19179,30.38472],[-82.19342,30.38334],[-82.19279,30.37907],[-82.18991,30.37617],[-82.18711,30.37898],[-82.18479,30.37894],[-82.18349,30.37334],[-82.18024,30.37258],[-82.18099,30.36861],[-82.17375,30.36507],[-82.1702,30.35897],[-82.16741,30.36],[-82.16178,30.35711],[-82.1579,30.36012],[-82.1501,30.36183],[-82.14855,30.3609],[-82.13996,30.36492],[-82.13694,30.36422],[-82.13706,30.36252],[-82.13386,30.36224],[-82.12756,30.36544],[-82.12867,30.36708],[-82.12685,30.36826],[-82.11815,30.36436],[-82.11578,30.36805],[-82.11152,30.36756],[-82.11033,30.36521],[-82.1104,30.36672],[-82.10524,30.3689],[-82.10156,30.36664],[-82.10237,30.36438],[-82.10063,30.36442],[-82.10108,30.36279],[-82.0987,30.36406],[-82.09472,30.3607],[-82.08332,30.36033],[-82.08111,30.35877],[-82.07267,30.36141],[-82.06618,30.35576],[-82.06491,30.35643],[-82.06542,30.35855],[-82.06286,30.35875],[-82.06242,30.36065],[-82.05809,30.35921],[-82.04777,30.36349],[-82.04512,30.36631],[-82.04214,30.36541],[-82.04449,30.36767],[-82.04176,30.36762],[-82.04075,30.37056],[-82.03716,30.37203],[-82.03814,30.37292],[-82.03676,30.37511],[-82.03881,30.37469],[-82.03663,30.3781],[-82.03816,30.38221],[-82.03583,30.38501],[-82.04006,30.39138],[-82.04469,30.40396],[-82.04129,30.40667],[-82.0439,30.40799],[-82.04363,30.41056],[-82.04187,30.41131],[-82.04336,30.41305],[-82.04085,30.41494],[-82.04376,30.41487],[-82.04099,30.4166],[-82.0395,30.4155],[-82.03914,30.41705],[-82.04054,30.41764],[-82.03755,30.41754],[-82.03406,30.42003],[-82.036,30.42497],[-82.03378,30.42765],[-82.03532,30.42799],[-82.03773,30.43547],[-82.03946,30.43437],[-82.04,30.43666],[-82.03606,30.43846],[-82.03387,30.44232],[-82.03247,30.4416],[-82.02814,30.44725],[-82.02963,30.45074],[-82.02687,30.45372],[-82.02832,30.45539],[-82.02227,30.46138],[-82.02416,30.46448],[-82.02359,30.46721],[-82.01691,30.47511],[-82.01935,30.47898],[-82.01743,30.47987],[-82.01922,30.48298],[-82.01555,30.48396],[-82.01714,30.48558],[-82.01641,30.48867],[-82.01802,30.49207],[-82.01572,30.49482],[-82.01775,30.49579],[-82.01515,30.49989],[-82.01709,30.50208],[-82.01702,30.50713],[-82.01456,30.51231],[-82.01554,30.5201],[-82.01859,30.51949],[-82.0163,30.5219],[-82.01863,30.52383],[-82.01818,30.52751],[-82.01644,30.5269],[-82.01543,30.5285],[-82.0183,30.52852],[-82.0176,30.53232],[-82.01905,30.53301],[-82.01661,30.53473],[-82.01575,30.53954],[-82.01341,30.54244],[-82.01317,30.54995],[-82.00995,30.55043],[-82.01114,30.55347],[-82.00842,30.55453],[-82.0096,30.55621],[-82.00847,30.55809],[-82.01002,30.55787],[-82.01071,30.56074],[-82.00803,30.56025],[-82.0054,30.56357],[-82.00841,30.56366],[-82.00582,30.56513],[-82.00823,30.56971],[-82.00653,30.57294],[-82.00788,30.57497],[-82.00618,30.57496],[-82.00803,30.57703],[-82.00613,30.57712],[-82.009,30.58015],[-82.00888,30.58294],[-82.01075,30.58372],[-82.01021,30.58642],[-82.01216,30.58626],[-82.0112,30.58899],[-82.01279,30.5903],[-82.01222,30.59391],[-82.01445,30.59629],[-82.01509,30.6006],[-82.02365,30.60678],[-82.02723,30.60666],[-82.02681,30.61087],[-82.02888,30.61168],[-82.02628,30.61339],[-82.02826,30.62201],[-82.02998,30.62191],[-82.02952,30.61916],[-82.03165,30.61953],[-82.03168,30.62502],[-82.03496,30.62684],[-82.03317,30.62949],[-82.03673,30.62997],[-82.03582,30.63185],[-82.04049,30.63605],[-82.03877,30.63866],[-82.04025,30.63971],[-82.03861,30.64095],[-82.04164,30.64898],[-82.04608,30.65207],[-82.04435,30.65294],[-82.04902,30.6553],[-82.0494,30.66201],[-82.04834,30.66293],[-82.04647,30.66081],[-82.04806,30.66503],[-82.04599,30.66637],[-82.04828,30.66891],[-82.05026,30.67612],[-82.0463,30.68112],[-82.04843,30.68243],[-82.04369,30.68395],[-82.04298,30.69007],[-82.04124,30.69103],[-82.04168,30.69615],[-82.04404,30.69737],[-82.04124,30.69938],[-82.04295,30.70089],[-82.03957,30.70068],[-82.03978,30.70219],[-82.03593,30.7062],[-82.0368,30.71303],[-82.03904,30.71495],[-82.03889,30.71765],[-82.03712,30.71854],[-82.03957,30.7193],[-82.03851,30.72264],[-82.04553,30.72788],[-82.04193,30.73001],[-82.04407,30.73126],[-82.03889,30.73615],[-82.04045,30.73797],[-82.03886,30.7437],[-82.0398,30.7473],[-82.03677,30.75443],[-82.03459,30.75429],[-82.03168,30.75039],[-82.02768,30.75094],[-82.02184,30.75363],[-82.02137,30.75519],[-82.01759,30.75499],[-82.02016,30.75784],[-82.0116,30.76188],[-82.01516,30.77197],[-82.01837,30.77261],[-82.01738,30.7758],[-82.02364,30.78308],[-82.02288,30.78771],[-82.01697,30.7878],[-82.01771,30.79058],[-82.01633,30.79158],[-82.01297,30.79093],[-82.01418,30.78921],[-82.01045,30.78998],[-82.00767,30.79304],[-82.00585,30.79039],[-82.00359,30.79167],[-81.99741,30.78639],[-81.99557,30.78684],[-81.98871,30.78036],[-81.98102,30.77698],[-81.97804,30.77655],[-81.97364,30.77872],[-81.97012,30.78436],[-81.96902,30.79128],[-81.96217,30.79698],[-81.96172,30.80099],[-81.96504,30.80681],[-81.96194,30.80871],[-81.96388,30.81295],[-81.96122,30.81404],[-81.96448,30.8173],[-81.94981,30.82776],[-81.94202,30.82555],[-81.94282,30.8285],[-81.93908,30.82721],[-81.93883,30.82985],[-81.93629,30.82777],[-81.93606,30.82448],[-81.93352,30.82338],[-81.93526,30.82107],[-81.92983,30.82007],[-81.92874,30.81751],[-81.91865,30.81782],[-81.90911,30.81568],[-81.90421,30.81859],[-81.90697,30.82649],[-81.90124,30.82988],[-81.89554,30.82529],[-81.89198,30.82488],[-81.89143,30.81659],[-81.88472,30.81142],[-81.88453,30.8076],[-81.88214,30.80483],[-81.88267,30.80028],[-81.87114,30.79804],[-81.86851,30.79291],[-81.85269,30.7949],[-81.84587,30.79075],[-81.84027,30.79259],[-81.84188,30.78757],[-81.83948,30.78659],[-81.83001,30.78936],[-81.8238,30.78681],[-81.81949,30.78989],[-81.80745,30.79012],[-81.80189,30.78688],[-81.79717,30.78147],[-81.79597,30.78213],[-81.79713,30.78503],[-81.79307,30.78725],[-81.79135,30.7828],[-81.78379,30.77333],[-81.7867,30.7698],[-81.78276,30.76661],[-81.78263,30.76145],[-81.77157,30.76414],[-81.77359,30.76771],[-81.77026,30.77367],[-81.77071,30.77682],[-81.76172,30.7757],[-81.75594,30.76934],[-81.74075,30.76501],[-81.74219,30.75925],[-81.73186,30.75499],[-81.73322,30.75128],[-81.73206,30.74982],[-81.72013,30.74472],[-81.70911,30.74798],[-81.70209,30.74547],[-81.69389,30.74847],[-81.68915,30.74163],[-81.67942,30.74152],[-81.67249,30.73879],[-81.66884,30.74251],[-81.67084,30.7474],[-81.67348,30.74855],[-81.67991,30.74469],[-81.68278,30.74597],[-81.6831,30.74849],[-81.67907,30.75091],[-81.66955,30.7517],[-81.66232,30.75418],[-81.65973,30.74972],[-81.66348,30.74585],[-81.66301,30.74349],[-81.66084,30.74234],[-81.6543,30.74436],[-81.65183,30.74221],[-81.65409,30.73309],[-81.65215,30.72887],[-81.64854,30.72742],[-81.64358,30.7282],[-81.63662,30.73394],[-81.63268,30.7286],[-81.63043,30.72809],[-81.62883,30.72931],[-81.62833,30.73539],[-81.62437,30.73634],[-81.62068,30.73096],[-81.62343,30.72555],[-81.62298,30.72347],[-81.61417,30.72235],[-81.61193,30.7172],[-81.60987,30.71593],[-81.60605,30.71868],[-81.60583,30.72726],[-81.60188,30.72959],[-81.59653,30.72747],[-81.59737,30.72023],[-81.59618,30.71867],[-81.59266,30.71891],[-81.58768,30.72364],[-81.57422,30.7225],[-81.56351,30.71751],[-81.56346,30.71342],[-81.56142,30.71167],[-81.54838,30.71828],[-81.54602,30.71694],[-81.54283,30.71113],[-81.53839,30.70866],[-81.53401,30.71145],[-81.53449,30.72007],[-81.53229,30.72409],[-81.50989,30.72261],[-81.48846,30.72631],[-81.48483,30.72511],[-81.47411,30.71391],[-81.45124,30.70948],[-81.4037,30.70981],[-81.40417,30.71244],[-81.34702,30.71244],[-81.35025,30.7214],[-81.35139,30.73088],[-81.35915,30.74431],[-81.37481,30.75748],[-81.3913,30.76467],[-81.40048,30.76643],[-81.38633,30.80137],[-81.37481,30.81738],[-81.36268,30.84593],[-81.36334,30.85056],[-81.35886,30.86751],[-81.3502,30.88911],[-81.34521,30.9315],[-81.33323,30.93659],[-81.31754,30.9485],[-81.3073,30.96223],[-81.30483,30.97077],[-81.30478,30.98571],[-81.31071,30.99733],[-81.32394,31.00881],[-81.33794,31.01631],[-81.3445,31.01811],[-81.35342,31.03712],[-81.34531,31.05936],[-81.32617,31.06266],[-81.31364,31.06785],[-81.29787,31.08095],[-81.2902,31.09349],[-81.28632,31.10308],[-81.28653,31.11669],[-81.28987,31.13116],[-81.29401,31.13567],[-81.29273,31.14283],[-81.29642,31.15188],[-81.29215,31.15541],[-81.26697,31.15703],[-81.24791,31.16081],[-81.23434,31.17026],[-81.22216,31.18797],[-81.21626,31.20465],[-81.20914,31.21313],[-81.20245,31.22768],[-81.18768,31.24626],[-81.18256,31.26899],[-81.18468,31.30112],[-81.18335,31.31124],[-81.18612,31.3268],[-81.17712,31.33928],[-81.17198,31.3553],[-81.17109,31.37032],[-81.17561,31.38248],[-81.19076,31.39988],[-81.18219,31.40532],[-81.16694,31.42344],[-81.16244,31.43703],[-81.16355,31.44203],[-81.15015,31.45804],[-81.14384,31.47152],[-81.13352,31.47374],[-81.12544,31.47754],[-81.115,31.48701],[-81.10714,31.49663],[-81.09969,31.51853],[-81.09538,31.52098]]]},"properties":{"NAME":"Georgia","BASENAME":"Georgia","STATE":"13"}}]}